STARLINK-36995          
1 68143U 26049B   26086.25003472  .00171882  00000+0  88349-3 0  9999
2 68143  97.2842 106.3468 0001141 100.0388 186.7902 15.80742227  3443
STARLINK-37020          
1 68144U 26049C   26086.25003472  .00079432  00000+0  41268-3 0  9997
2 68144  97.2847 106.3494 0000881 112.4818 182.8956 15.80762322  3447
STARLINK-36244          
1 68145U 26049D   26086.25003472 -.01957020  00000+0 -12835-1 0  9995
2 68145  97.2838 106.3520 0001545 102.8532 199.3867 15.78872668  3459
STARLINK-36980          
1 68146U 26049E   26086.25003472  .00148183  00000+0  76377-3 0  9998
2 68146  97.2840 106.3524 0001631 111.3042 188.3490 15.80744300  3447
STARLINK-37055          
1 68147U 26049F   26086.25003472  .00173260  00000+0  89069-3 0  9995
2 68147  97.2841 106.3479 0001098  98.1884 192.9157 15.80735686  3449
STARLINK-36981          
1 68148U 26049G   26086.25003472  .00111241  00000+0  57568-3 0  9996
2 68148  97.2842 106.3552 0001378  98.0620 210.1353 15.80756272  3446
STARLINK-36992          
1 68149U 26049H   26086.25003472  .00034946  00000+0  18249-3 0  9996
2 68149  97.2842 106.3573 0001208  73.5070 238.9468 15.80811625  3448
STARLINK-37060          
1 68150U 26049J   26086.25003472  .00013250  00000+0  69806-4 0  9999
2 68150  97.2842 106.3589 0001234 101.8156 214.9102 15.80816798  3441
STARLINK-37073          
1 68151U 26049K   26086.25003472  .00058241  00000+0  30314-3 0  9990
2 68151  97.2841 106.3608 0001273 120.4336 200.5720 15.80788927  3442
STARLINK-37049          
1 68152U 26049L   26086.25003472  .00084466  00000+0  43855-3 0  9993
2 68152  97.2841 106.3623 0001172  94.4679 230.8237 15.80761395  3447
STARLINK-37072          
1 68153U 26049M   26086.25003472  .00094589  00000+0  49027-3 0  9998
2 68153  97.2842 106.3639 0001325 101.2667 228.2943 15.80769165  3448
STARLINK-36241          
1 68154U 26049N   26086.25003472 -.01201825  00000+0 -87302-2 0  9992
2 68154  97.2838 106.3642 0001613  95.0798 234.3860 15.76080648  3457
