CCSDS_OMM_VERS = 2.0
CREATION_DATE  = 
ORIGINATOR     = 

OBJECT_NAME    = STARLINK-36995
OBJECT_ID      = 2026-049B
CENTER_NAME    = EARTH
REF_FRAME      = TEME
TIME_SYSTEM    = UTC
MEAN_ELEMENT_THEORY = SGP/SGP4

EPOCH          = 2026-03-27T06:00:02.999808
MEAN_MOTION    = 15.80742227
ECCENTRICITY   = .0001141
INCLINATION    = 97.2842
RA_OF_ASC_NODE = 106.3468
ARG_OF_PERICENTER = 100.0388
MEAN_ANOMALY   = 186.7902

EPHEMERIS_TYPE = 0
CLASSIFICATION_TYPE = U
NORAD_CAT_ID   = 68143
ELEMENT_SET_NO = 999
REV_AT_EPOCH   = 344
BSTAR          = .88348564E-3
MEAN_MOTION_DOT = .171882E-2
MEAN_MOTION_DDOT = 0

CCSDS_OMM_VERS = 2.0
CREATION_DATE  = 
ORIGINATOR     = 

OBJECT_NAME    = STARLINK-37020
OBJECT_ID      = 2026-049C
CENTER_NAME    = EARTH
REF_FRAME      = TEME
TIME_SYSTEM    = UTC
MEAN_ELEMENT_THEORY = SGP/SGP4

EPOCH          = 2026-03-27T06:00:02.999808
MEAN_MOTION    = 15.80762322
ECCENTRICITY   = .00008813
INCLINATION    = 97.2847
RA_OF_ASC_NODE = 106.3494
ARG_OF_PERICENTER = 112.4818
MEAN_ANOMALY   = 182.8956

EPHEMERIS_TYPE = 0
CLASSIFICATION_TYPE = U
NORAD_CAT_ID   = 68144
ELEMENT_SET_NO = 999
REV_AT_EPOCH   = 344
BSTAR          = .41268046E-3
MEAN_MOTION_DOT = .79432E-3
MEAN_MOTION_DDOT = 0

CCSDS_OMM_VERS = 2.0
CREATION_DATE  = 
ORIGINATOR     = 

OBJECT_NAME    = STARLINK-36244
OBJECT_ID      = 2026-049D
CENTER_NAME    = EARTH
REF_FRAME      = TEME
TIME_SYSTEM    = UTC
MEAN_ELEMENT_THEORY = SGP/SGP4

EPOCH          = 2026-03-27T06:00:02.999808
MEAN_MOTION    = 15.78872668
ECCENTRICITY   = .00015459
INCLINATION    = 97.2838
RA_OF_ASC_NODE = 106.3520
ARG_OF_PERICENTER = 102.8532
MEAN_ANOMALY   = 199.3867

EPHEMERIS_TYPE = 0
CLASSIFICATION_TYPE = U
NORAD_CAT_ID   = 68145
ELEMENT_SET_NO = 999
REV_AT_EPOCH   = 345
BSTAR          = -.12835053E-1
MEAN_MOTION_DOT = -.195702E-1
MEAN_MOTION_DDOT = 0

CCSDS_OMM_VERS = 2.0
CREATION_DATE  = 
ORIGINATOR     = 

OBJECT_NAME    = STARLINK-36980
OBJECT_ID      = 2026-049E
CENTER_NAME    = EARTH
REF_FRAME      = TEME
TIME_SYSTEM    = UTC
MEAN_ELEMENT_THEORY = SGP/SGP4

EPOCH          = 2026-03-27T06:00:02.999808
MEAN_MOTION    = 15.80744300
ECCENTRICITY   = .00016315
INCLINATION    = 97.2840
RA_OF_ASC_NODE = 106.3524
ARG_OF_PERICENTER = 111.3042
MEAN_ANOMALY   = 188.3490

EPHEMERIS_TYPE = 0
CLASSIFICATION_TYPE = U
NORAD_CAT_ID   = 68146
ELEMENT_SET_NO = 999
REV_AT_EPOCH   = 344
BSTAR          = .76376963E-3
MEAN_MOTION_DOT = .148183E-2
MEAN_MOTION_DDOT = 0

CCSDS_OMM_VERS = 2.0
CREATION_DATE  = 
ORIGINATOR     = 

OBJECT_NAME    = STARLINK-37055
OBJECT_ID      = 2026-049F
CENTER_NAME    = EARTH
REF_FRAME      = TEME
TIME_SYSTEM    = UTC
MEAN_ELEMENT_THEORY = SGP/SGP4

EPOCH          = 2026-03-27T06:00:02.999808
MEAN_MOTION    = 15.80735686
ECCENTRICITY   = .00010982
INCLINATION    = 97.2841
RA_OF_ASC_NODE = 106.3479
ARG_OF_PERICENTER = 98.1884
MEAN_ANOMALY   = 192.9157

EPHEMERIS_TYPE = 0
CLASSIFICATION_TYPE = U
NORAD_CAT_ID   = 68147
ELEMENT_SET_NO = 999
REV_AT_EPOCH   = 344
BSTAR          = .89068903E-3
MEAN_MOTION_DOT = .17326E-2
MEAN_MOTION_DDOT = 0

CCSDS_OMM_VERS = 2.0
CREATION_DATE  = 
ORIGINATOR     = 

OBJECT_NAME    = STARLINK-36981
OBJECT_ID      = 2026-049G
CENTER_NAME    = EARTH
REF_FRAME      = TEME
TIME_SYSTEM    = UTC
MEAN_ELEMENT_THEORY = SGP/SGP4

EPOCH          = 2026-03-27T06:00:02.999808
MEAN_MOTION    = 15.80756272
ECCENTRICITY   = .00013785
INCLINATION    = 97.2842
RA_OF_ASC_NODE = 106.3552
ARG_OF_PERICENTER = 98.0620
MEAN_ANOMALY   = 210.1353

EPHEMERIS_TYPE = 0
CLASSIFICATION_TYPE = U
NORAD_CAT_ID   = 68148
ELEMENT_SET_NO = 999
REV_AT_EPOCH   = 344
BSTAR          = .57568491E-3
MEAN_MOTION_DOT = .111241E-2
MEAN_MOTION_DDOT = 0

CCSDS_OMM_VERS = 2.0
CREATION_DATE  = 
ORIGINATOR     = 

OBJECT_NAME    = STARLINK-36992
OBJECT_ID      = 2026-049H
CENTER_NAME    = EARTH
REF_FRAME      = TEME
TIME_SYSTEM    = UTC
MEAN_ELEMENT_THEORY = SGP/SGP4

EPOCH          = 2026-03-27T06:00:02.999808
MEAN_MOTION    = 15.80811625
ECCENTRICITY   = .0001208
INCLINATION    = 97.2842
RA_OF_ASC_NODE = 106.3573
ARG_OF_PERICENTER = 73.5070
MEAN_ANOMALY   = 238.9468

EPHEMERIS_TYPE = 0
CLASSIFICATION_TYPE = U
NORAD_CAT_ID   = 68149
ELEMENT_SET_NO = 999
REV_AT_EPOCH   = 344
BSTAR          = .1824877E-3
MEAN_MOTION_DOT = .34946E-3
MEAN_MOTION_DDOT = 0

CCSDS_OMM_VERS = 2.0
CREATION_DATE  = 
ORIGINATOR     = 

OBJECT_NAME    = STARLINK-37060
OBJECT_ID      = 2026-049J
CENTER_NAME    = EARTH
REF_FRAME      = TEME
TIME_SYSTEM    = UTC
MEAN_ELEMENT_THEORY = SGP/SGP4

EPOCH          = 2026-03-27T06:00:02.999808
MEAN_MOTION    = 15.80816798
ECCENTRICITY   = .00012344
INCLINATION    = 97.2842
RA_OF_ASC_NODE = 106.3589
ARG_OF_PERICENTER = 101.8156
MEAN_ANOMALY   = 214.9102

EPHEMERIS_TYPE = 0
CLASSIFICATION_TYPE = U
NORAD_CAT_ID   = 68150
ELEMENT_SET_NO = 999
REV_AT_EPOCH   = 344
BSTAR          = .69806148E-4
MEAN_MOTION_DOT = .1325E-3
MEAN_MOTION_DDOT = 0

CCSDS_OMM_VERS = 2.0
CREATION_DATE  = 
ORIGINATOR     = 

OBJECT_NAME    = STARLINK-37073
OBJECT_ID      = 2026-049K
CENTER_NAME    = EARTH
REF_FRAME      = TEME
TIME_SYSTEM    = UTC
MEAN_ELEMENT_THEORY = SGP/SGP4

EPOCH          = 2026-03-27T06:00:02.999808
MEAN_MOTION    = 15.80788927
ECCENTRICITY   = .00012739
INCLINATION    = 97.2841
RA_OF_ASC_NODE = 106.3608
ARG_OF_PERICENTER = 120.4336
MEAN_ANOMALY   = 200.5720

EPHEMERIS_TYPE = 0
CLASSIFICATION_TYPE = U
NORAD_CAT_ID   = 68151
ELEMENT_SET_NO = 999
REV_AT_EPOCH   = 344
BSTAR          = .30314375E-3
MEAN_MOTION_DOT = .58241E-3
MEAN_MOTION_DDOT = 0

CCSDS_OMM_VERS = 2.0
CREATION_DATE  = 
ORIGINATOR     = 

OBJECT_NAME    = STARLINK-37049
OBJECT_ID      = 2026-049L
CENTER_NAME    = EARTH
REF_FRAME      = TEME
TIME_SYSTEM    = UTC
MEAN_ELEMENT_THEORY = SGP/SGP4

EPOCH          = 2026-03-27T06:00:02.999808
MEAN_MOTION    = 15.80761395
ECCENTRICITY   = .00011723
INCLINATION    = 97.2841
RA_OF_ASC_NODE = 106.3623
ARG_OF_PERICENTER = 94.4679
MEAN_ANOMALY   = 230.8237

EPHEMERIS_TYPE = 0
CLASSIFICATION_TYPE = U
NORAD_CAT_ID   = 68152
ELEMENT_SET_NO = 999
REV_AT_EPOCH   = 344
BSTAR          = .43854505E-3
MEAN_MOTION_DOT = .84466E-3
MEAN_MOTION_DDOT = 0

CCSDS_OMM_VERS = 2.0
CREATION_DATE  = 
ORIGINATOR     = 

OBJECT_NAME    = STARLINK-37072
OBJECT_ID      = 2026-049M
CENTER_NAME    = EARTH
REF_FRAME      = TEME
TIME_SYSTEM    = UTC
MEAN_ELEMENT_THEORY = SGP/SGP4

EPOCH          = 2026-03-27T06:00:02.999808
MEAN_MOTION    = 15.80769165
ECCENTRICITY   = .00013259
INCLINATION    = 97.2842
RA_OF_ASC_NODE = 106.3639
ARG_OF_PERICENTER = 101.2667
MEAN_ANOMALY   = 228.2943

EPHEMERIS_TYPE = 0
CLASSIFICATION_TYPE = U
NORAD_CAT_ID   = 68153
ELEMENT_SET_NO = 999
REV_AT_EPOCH   = 344
BSTAR          = .4902665E-3
MEAN_MOTION_DOT = .94589E-3
MEAN_MOTION_DDOT = 0

CCSDS_OMM_VERS = 2.0
CREATION_DATE  = 
ORIGINATOR     = 

OBJECT_NAME    = STARLINK-36241
OBJECT_ID      = 2026-049N
CENTER_NAME    = EARTH
REF_FRAME      = TEME
TIME_SYSTEM    = UTC
MEAN_ELEMENT_THEORY = SGP/SGP4

EPOCH          = 2026-03-27T06:00:02.999808
MEAN_MOTION    = 15.76080648
ECCENTRICITY   = .00016131
INCLINATION    = 97.2838
RA_OF_ASC_NODE = 106.3642
ARG_OF_PERICENTER = 95.0798
MEAN_ANOMALY   = 234.3860

EPHEMERIS_TYPE = 0
CLASSIFICATION_TYPE = U
NORAD_CAT_ID   = 68154
ELEMENT_SET_NO = 999
REV_AT_EPOCH   = 345
BSTAR          = -.87301994E-2
MEAN_MOTION_DOT = -.1201825E-1
MEAN_MOTION_DDOT = 0

